start=new Date('2022-02-17T00:00:00.000Z').valueOf();
sats=[{"TLE_LINE1":"1 45377U 20019T   22047.89653878  .00000349  00000-0  42309-4 0  9995","MEAN_MOTION_DOT":"0.00000349","PERIAPSIS":"546.021","MEAN_MOTION_DDOT":"0.0000000000000","MEAN_MOTION":"15.06396814","RCS_SIZE":"LARGE","REV_AT_EPOCH":"10639","EPHEMERIS_TYPE":"0","CENTER_NAME":"EARTH","EPOCH":"2022-02-16T21:31:00.950592","REF_FRAME":"TEME","OBJECT_TYPE":"PAYLOAD","DECAY_DATE":null,"APOAPSIS":"548.426","ELEMENT_SET_NO":"999","MEAN_ANOMALY":"296.5513","CLASSIFICATION_TYPE":"U","PERIOD":"95.592","MEAN_ELEMENT_THEORY":"SGP4","RA_OF_ASC_NODE":"338.6424","ARG_OF_PERICENTER":"63.5654","OBJECT_ID":"2020-019T","FILE":"3302660","BSTAR":"0.00004230900000","SEMIMAJOR_AXIS":"6925.358","OBJECT_NAME":"STARLINK-1305","SITE":"AFETR","COUNTRY_CODE":"US","NORAD_CAT_ID":"45377","ECCENTRICITY":"0.00017360","GP_ID":"196129155","INCLINATION":"53.0554","TLE_LINE2":"2 45377  53.0554 338.6424 0001736  63.5654 296.5513 15.06396814106399","LAUNCH_DATE":"2020-03-18","TIME_SYSTEM":"UTC"},{"FILE":"3302660","BSTAR":"-0.00007907400000","SEMIMAJOR_AXIS":"6925.362","MEAN_ELEMENT_THEORY":"SGP4","RA_OF_ASC_NODE":"338.4118","OBJECT_ID":"2020-019U","ARG_OF_PERICENTER":"75.1947","COUNTRY_CODE":"US","SITE":"AFETR","NORAD_CAT_ID":"45378","ECCENTRICITY":"0.00015540","OBJECT_NAME":"STARLINK-1310","INCLINATION":"53.0558","TLE_LINE2":"2 45378  53.0558 338.4118 0001554  75.1947 284.9214 15.06395660106403","LAUNCH_DATE":"2020-03-18","TIME_SYSTEM":"UTC","GP_ID":"196130406","MEAN_MOTION_DOT":"-0.00001459","PERIAPSIS":"546.151","MEAN_MOTION_DDOT":"0.0000000000000","TLE_LINE1":"1 45378U 20019U   22047.95182490 -.00001459  00000-0 -79074-4 0  9994","EPHEMERIS_TYPE":"0","CENTER_NAME":"EARTH","MEAN_MOTION":"15.06395660","RCS_SIZE":"LARGE","REV_AT_EPOCH":"10640","DECAY_DATE":null,"APOAPSIS":"548.303","ELEMENT_SET_NO":"999","EPOCH":"2022-02-16T22:50:37.671360","REF_FRAME":"TEME","OBJECT_TYPE":"PAYLOAD","CLASSIFICATION_TYPE":"U","PERIOD":"95.592","MEAN_ANOMALY":"284.9214"},{"INCLINATION":"53.0552","TLE_LINE2":"2 45379  53.0552 338.3821 0001419  70.5097 289.6045 15.06391368106408","LAUNCH_DATE":"2020-03-18","TIME_SYSTEM":"UTC","GP_ID":"196130157","COUNTRY_CODE":"US","SITE":"AFETR","NORAD_CAT_ID":"45379","ECCENTRICITY":"0.00014190","OBJECT_NAME":"STARLINK-1319","FILE":"3302660","BSTAR":"-0.00002449300000","SEMIMAJOR_AXIS":"6925.375","MEAN_ELEMENT_THEORY":"SGP4","RA_OF_ASC_NODE":"338.3821","ARG_OF_PERICENTER":"70.5097","OBJECT_ID":"2020-019V","CLASSIFICATION_TYPE":"U","PERIOD":"95.593","MEAN_ANOMALY":"289.6045","DECAY_DATE":null,"APOAPSIS":"548.223","ELEMENT_SET_NO":"999","EPOCH":"2022-02-16T22:55:56.861472","REF_FRAME":"TEME","OBJECT_TYPE":"PAYLOAD","EPHEMERIS_TYPE":"0","CENTER_NAME":"EARTH","MEAN_MOTION":"15.06391368","RCS_SIZE":"LARGE","REV_AT_EPOCH":"10640","MEAN_MOTION_DOT":"-0.00000646","PERIAPSIS":"546.257","MEAN_MOTION_DDOT":"0.0000000000000","TLE_LINE1":"1 45379U 20019V   22047.95551923 -.00000646  00000-0 -24493-4 0  9998"},{"MEAN_ANOMALY":"285.1623","PERIOD":"95.593","CLASSIFICATION_TYPE":"U","OBJECT_TYPE":"PAYLOAD","REF_FRAME":"TEME","EPOCH":"2022-02-16T21:17:44.657088","ELEMENT_SET_NO":"999","APOAPSIS":"548.384","DECAY_DATE":null,"REV_AT_EPOCH":"10666","MEAN_MOTION":"15.06390638","RCS_SIZE":"LARGE","CENTER_NAME":"EARTH","EPHEMERIS_TYPE":"0","TLE_LINE1":"1 45380U 20019W   22047.88732242  .00005219  00000-0  36909-3 0  9990","MEAN_MOTION_DDOT":"0.0000000000000","PERIAPSIS":"546.101","MEAN_MOTION_DOT":"0.00005219","GP_ID":"196128905","TIME_SYSTEM":"UTC","LAUNCH_DATE":"2020-03-18","TLE_LINE2":"2 45380  53.0536 318.6861 0001648  74.9548 285.1623 15.06390638106660","INCLINATION":"53.0536","OBJECT_NAME":"STARLINK-1207","NORAD_CAT_ID":"45380","ECCENTRICITY":"0.00016480","COUNTRY_CODE":"US","SITE":"AFETR","ARG_OF_PERICENTER":"74.9548","OBJECT_ID":"2020-019W","RA_OF_ASC_NODE":"318.6861","MEAN_ELEMENT_THEORY":"SGP4","SEMIMAJOR_AXIS":"6925.377","BSTAR":"0.00036909000000","FILE":"3302660"},{"REV_AT_EPOCH":"10666","MEAN_MOTION":"15.06402138","RCS_SIZE":"LARGE","CENTER_NAME":"EARTH","EPHEMERIS_TYPE":"0","TLE_LINE1":"1 45381U 20019X   22047.89837377  .00004173  00000-0  29888-3 0  9993","MEAN_MOTION_DDOT":"0.0000000000000","PERIAPSIS":"546.197","MEAN_MOTION_DOT":"0.00004173","MEAN_ANOMALY":"279.4273","PERIOD":"95.592","CLASSIFICATION_TYPE":"U","OBJECT_TYPE":"PAYLOAD","REF_FRAME":"TEME","EPOCH":"2022-02-16T21:33:39.493728","ELEMENT_SET_NO":"999","APOAPSIS":"548.217","DECAY_DATE":null,"OBJECT_NAME":"STARLINK-1258","NORAD_CAT_ID":"45381","ECCENTRICITY":"0.00014580","SITE":"AFETR","COUNTRY_CODE":"US","OBJECT_ID":"2020-019X","ARG_OF_PERICENTER":"80.6881","RA_OF_ASC_NODE":"318.6295","MEAN_ELEMENT_THEORY":"SGP4","SEMIMAJOR_AXIS":"6925.342","FILE":"3302660","BSTAR":"0.00029888000000","GP_ID":"196129655","LAUNCH_DATE":"2020-03-18","TIME_SYSTEM":"UTC","TLE_LINE2":"2 45381  53.0540 318.6295 0001458  80.6881 279.4273 15.06402138106666","INCLINATION":"53.0540"},{"OBJECT_NAME":"STARLINK-1264","NORAD_CAT_ID":"45382","ECCENTRICITY":"0.00012880","SITE":"AFETR","COUNTRY_CODE":"US","OBJECT_ID":"2020-019Y","ARG_OF_PERICENTER":"79.3354","MEAN_ELEMENT_THEORY":"SGP4","RA_OF_ASC_NODE":"318.4537","SEMIMAJOR_AXIS":"6925.333","BSTAR":"0.00029079000000","FILE":"3302660","GP_ID":"196129907","TLE_LINE2":"2 45382  53.0552 318.4537 0001288  79.3354 280.7780 15.06405208106498","LAUNCH_DATE":"2020-03-18","TIME_SYSTEM":"UTC","INCLINATION":"53.0552","REV_AT_EPOCH":"10649","RCS_SIZE":"LARGE","MEAN_MOTION":"15.06405208","CENTER_NAME":"EARTH","EPHEMERIS_TYPE":"0","TLE_LINE1":"1 45382U 20019Y   22047.94261484  .00004053  00000-0  29079-3 0  9999","MEAN_MOTION_DDOT":"0.0000000000000","MEAN_MOTION_DOT":"0.00004053","PERIAPSIS":"546.306","MEAN_ANOMALY":"280.7780","CLASSIFICATION_TYPE":"U","PERIOD":"95.592","REF_FRAME":"TEME","OBJECT_TYPE":"PAYLOAD","EPOCH":"2022-02-16T22:37:21.922176","ELEMENT_SET_NO":"999","DECAY_DATE":null,"APOAPSIS":"548.090"},{"MEAN_MOTION_DDOT":"0.0000000000000","MEAN_MOTION_DOT":"0.00011100","PERIAPSIS":"546.071","TLE_LINE1":"1 45383U 20019Z   22047.89100309  .00011100  00000-0  76277-3 0  9995","CENTER_NAME":"EARTH","EPHEMERIS_TYPE":"0","REV_AT_EPOCH":"10666","MEAN_MOTION":"15.06405092","RCS_SIZE":"LARGE","ELEMENT_SET_NO":"999","DECAY_DATE":null,"APOAPSIS":"548.325","REF_FRAME":"TEME","OBJECT_TYPE":"PAYLOAD","EPOCH":"2022-02-16T21:23:02.666976","CLASSIFICATION_TYPE":"U","PERIOD":"95.592","MEAN_ANOMALY":"281.0437","SEMIMAJOR_AXIS":"6925.333","BSTAR":"0.00076277000000","FILE":"3302660","ARG_OF_PERICENTER":"79.0735","OBJECT_ID":"2020-019Z","MEAN_ELEMENT_THEORY":"SGP4","RA_OF_ASC_NODE":"318.6688","NORAD_CAT_ID":"45383","ECCENTRICITY":"0.00016280","SITE":"AFETR","COUNTRY_CODE":"US","OBJECT_NAME":"STARLINK-1266","TLE_LINE2":"2 45383  53.0565 318.6688 0001628  79.0735 281.0437 15.06405092106663","TIME_SYSTEM":"UTC","LAUNCH_DATE":"2020-03-18","INCLINATION":"53.0565","GP_ID":"196130657"},{"GP_ID":"196129405","INCLINATION":"53.0560","TIME_SYSTEM":"UTC","LAUNCH_DATE":"2020-03-18","TLE_LINE2":"2 45384  53.0560 318.4232 0001579  71.4741 288.6419 15.06392860106672","OBJECT_NAME":"STARLINK-1267","SITE":"AFETR","COUNTRY_CODE":"US","NORAD_CAT_ID":"45384","ECCENTRICITY":"0.00015790","RA_OF_ASC_NODE":"318.4232","MEAN_ELEMENT_THEORY":"SGP4","OBJECT_ID":"2020-019AA","ARG_OF_PERICENTER":"71.4741","BSTAR":"0.00007193600000","FILE":"3302660","SEMIMAJOR_AXIS":"6925.370","MEAN_ANOMALY":"288.6419","PERIOD":"95.593","CLASSIFICATION_TYPE":"U","EPOCH":"2022-02-16T22:42:39.754944","OBJECT_TYPE":"PAYLOAD","REF_FRAME":"TEME","APOAPSIS":"548.329","DECAY_DATE":null,"ELEMENT_SET_NO":"999","MEAN_MOTION":"15.06392860","RCS_SIZE":"LARGE","REV_AT_EPOCH":"10667","EPHEMERIS_TYPE":"0","CENTER_NAME":"EARTH","TLE_LINE1":"1 45384U 20019AA  22047.94629346  .00000790  00000-0  71936-4 0  9990","PERIAPSIS":"546.142","MEAN_MOTION_DOT":"0.00000790","MEAN_MOTION_DDOT":"0.0000000000000"},{"MEAN_ANOMALY":"284.8349","PERIOD":"95.591","CLASSIFICATION_TYPE":"U","OBJECT_TYPE":"PAYLOAD","REF_FRAME":"TEME","EPOCH":"2022-02-16T11:39:13.400928","ELEMENT_SET_NO":"999","APOAPSIS":"548.380","DECAY_DATE":null,"REV_AT_EPOCH":"10660","MEAN_MOTION":"15.06416096","RCS_SIZE":"LARGE","CENTER_NAME":"EARTH","EPHEMERIS_TYPE":"0","TLE_LINE1":"1 45386U 20019AC  22047.48557177  .00009614  00000-0  66313-3 0  9999","MEAN_MOTION_DDOT":"0.0000000000000","PERIAPSIS":"545.948","MEAN_MOTION_DOT":"0.00009614","GP_ID":"196091306","LAUNCH_DATE":"2020-03-18","TIME_SYSTEM":"UTC","TLE_LINE2":"2 45386  53.0550 320.5015 0001756  75.2834 284.8349 15.06416096106609","INCLINATION":"53.0550","OBJECT_NAME":"STARLINK-1272","ECCENTRICITY":"0.00017560","NORAD_CAT_ID":"45386","COUNTRY_CODE":"US","SITE":"AFETR","ARG_OF_PERICENTER":"75.2834","OBJECT_ID":"2020-019AC","RA_OF_ASC_NODE":"320.5015","MEAN_ELEMENT_THEORY":"SGP4","SEMIMAJOR_AXIS":"6925.299","FILE":"3301890","BSTAR":"0.00066313000000"},{"PERIAPSIS":"546.136","MEAN_MOTION_DOT":"0.00001343","MEAN_MOTION_DDOT":"0.0000000000000","TLE_LINE1":"1 45387U 20019AD  22047.90575102  .00001343  00000-0  10903-3 0  9990","EPHEMERIS_TYPE":"0","CENTER_NAME":"EARTH","RCS_SIZE":"LARGE","MEAN_MOTION":"15.06396260","REV_AT_EPOCH":"10666","APOAPSIS":"548.314","DECAY_DATE":null,"ELEMENT_SET_NO":"999","EPOCH":"2022-02-16T21:44:16.888128","OBJECT_TYPE":"PAYLOAD","REF_FRAME":"TEME","PERIOD":"95.592","CLASSIFICATION_TYPE":"U","MEAN_ANOMALY":"287.3004","BSTAR":"0.00010903000000","FILE":"3302660","SEMIMAJOR_AXIS":"6925.360","RA_OF_ASC_NODE":"318.6076","MEAN_ELEMENT_THEORY":"SGP4","ARG_OF_PERICENTER":"72.8157","OBJECT_ID":"2020-019AD","SITE":"AFETR","COUNTRY_CODE":"US","NORAD_CAT_ID":"45387","ECCENTRICITY":"0.00015720","OBJECT_NAME":"STARLINK-1274","INCLINATION":"53.0547","TIME_SYSTEM":"UTC","LAUNCH_DATE":"2020-03-18","TLE_LINE2":"2 45387  53.0547 318.6076 0001572  72.8157 287.3004 15.06396260106660","GP_ID":"196130407"}];
